STARLINK-35902          
1 66626U 25271K   25359.09487519  .00039092  00000+0  98179-3 0  9999
2 66626  53.1624 128.7124 0002834  76.2849 283.8471 15.39633022  6112
STARLINK-35904          
1 66627U 25271L   25358.69609513  .00019631  00000+0  49926-3 0  9998
2 66627  53.1617 130.4890 0001396  55.4587 304.6549 15.39634680  6013
STARLINK-35862          
1 66628U 25271M   25359.33334491  .00064520  00000+0  16113-2 0  9999
2 66628  53.1598 127.2257 0001190  92.7488 331.9919 15.39582528  6106
STARLINK-35956          
1 66629U 25271N   25359.21776655  .00460675  00000+0  62627-2 0  9991
2 66629  53.1727 127.3598 0008896  29.7607 330.3909 15.55457135  1002
STARLINK-35949          
1 66630U 25271P   25359.33334491  .00069123  00000+0  17235-2 0  9992
2 66630  53.1602 127.1768 0000607 103.7012 344.8693 15.39601002  6100
STARLINK-35965          
1 66631U 25271Q   25359.33334491  .00092346  00000+0  22921-2 0  9994
2 66631  53.1600 127.1738 0000596 100.7614 349.6709 15.39603073  6109
STARLINK-35973          
1 66632U 25271R   25358.39009409  .00077198  00000+0  19181-2 0  9990
2 66632  53.1616 132.1345 0000884  44.7602 315.3474 15.39657214  5969
STARLINK-35948          
1 66633U 25271S   25358.64942294  .00009250  00000+0  24095-3 0  9992
2 66633  53.1608 130.9090 0001227  61.4848 298.6280 15.39618587  6042
STARLINK-35967          
1 66634U 25271T   25358.83952194  .00047487  00000+0  11889-2 0  9994
2 66634  53.1609 129.9588 0000960  81.7938 278.3176 15.39642253  6037
STARLINK-35955          
1 66635U 25271U   25359.08990081  .00047126  00000+0  11799-2 0  9990
2 66635  53.1627 128.6795 0002162  78.8459 281.2789 15.39644634  6112
STARLINK-35968          
1 66636U 25271V   25359.09454520  .00042983  00000+0  10782-2 0  9992
2 66636  53.1620 128.7073 0002133  79.5695 280.5550 15.39629292  6115
STARLINK-35953          
1 66637U 25271W   25358.69576336  .00036196  00000+0  90987-3 0  9993
2 66637  53.1618 130.4840 0000848  76.7014 283.4085 15.39644073  6052
