CCSDS_OMM_VERS = 2.0
CREATION_DATE  = 
ORIGINATOR     = 

OBJECT_NAME    = STARLINK-35902
OBJECT_ID      = 2025-271K
CENTER_NAME    = EARTH
REF_FRAME      = TEME
TIME_SYSTEM    = UTC
MEAN_ELEMENT_THEORY = SGP/SGP4

EPOCH          = 2025-12-25T02:16:37.216416
MEAN_MOTION    = 15.39633022
ECCENTRICITY   = .00028348
INCLINATION    = 53.1624
RA_OF_ASC_NODE = 128.7124
ARG_OF_PERICENTER = 76.2849
MEAN_ANOMALY   = 283.8471

EPHEMERIS_TYPE = 0
CLASSIFICATION_TYPE = U
NORAD_CAT_ID   = 66626
ELEMENT_SET_NO = 999
REV_AT_EPOCH   = 611
BSTAR          = .98179107E-3
MEAN_MOTION_DOT = .39092E-3
MEAN_MOTION_DDOT = 0

CCSDS_OMM_VERS = 2.0
CREATION_DATE  = 
ORIGINATOR     = 

OBJECT_NAME    = STARLINK-35904
OBJECT_ID      = 2025-271L
CENTER_NAME    = EARTH
REF_FRAME      = TEME
TIME_SYSTEM    = UTC
MEAN_ELEMENT_THEORY = SGP/SGP4

EPOCH          = 2025-12-24T16:42:22.619232
MEAN_MOTION    = 15.39634680
ECCENTRICITY   = .00013967
INCLINATION    = 53.1617
RA_OF_ASC_NODE = 130.4890
ARG_OF_PERICENTER = 55.4587
MEAN_ANOMALY   = 304.6549

EPHEMERIS_TYPE = 0
CLASSIFICATION_TYPE = U
NORAD_CAT_ID   = 66627
ELEMENT_SET_NO = 999
REV_AT_EPOCH   = 601
BSTAR          = .49926279E-3
MEAN_MOTION_DOT = .19631E-3
MEAN_MOTION_DDOT = 0

CCSDS_OMM_VERS = 2.0
CREATION_DATE  = 
ORIGINATOR     = 

OBJECT_NAME    = STARLINK-35862
OBJECT_ID      = 2025-271M
CENTER_NAME    = EARTH
REF_FRAME      = TEME
TIME_SYSTEM    = UTC
MEAN_ELEMENT_THEORY = SGP/SGP4

EPOCH          = 2025-12-25T08:00:01.000224
MEAN_MOTION    = 15.39582528
ECCENTRICITY   = .00011901
INCLINATION    = 53.1598
RA_OF_ASC_NODE = 127.2257
ARG_OF_PERICENTER = 92.7488
MEAN_ANOMALY   = 331.9919

EPHEMERIS_TYPE = 0
CLASSIFICATION_TYPE = U
NORAD_CAT_ID   = 66628
ELEMENT_SET_NO = 999
REV_AT_EPOCH   = 610
BSTAR          = .16113438E-2
MEAN_MOTION_DOT = .6452E-3
MEAN_MOTION_DDOT = 0

CCSDS_OMM_VERS = 2.0
CREATION_DATE  = 
ORIGINATOR     = 

OBJECT_NAME    = STARLINK-35956
OBJECT_ID      = 2025-271N
CENTER_NAME    = EARTH
REF_FRAME      = TEME
TIME_SYSTEM    = UTC
MEAN_ELEMENT_THEORY = SGP/SGP4

EPOCH          = 2025-12-25T05:13:35.029920
MEAN_MOTION    = 15.55457135
ECCENTRICITY   = .00088965
INCLINATION    = 53.1727
RA_OF_ASC_NODE = 127.3598
ARG_OF_PERICENTER = 29.7607
MEAN_ANOMALY   = 330.3909

EPHEMERIS_TYPE = 0
CLASSIFICATION_TYPE = U
NORAD_CAT_ID   = 66629
ELEMENT_SET_NO = 999
REV_AT_EPOCH   = 100
BSTAR          = .62627332E-2
MEAN_MOTION_DOT = .460675E-2
MEAN_MOTION_DDOT = 0

CCSDS_OMM_VERS = 2.0
CREATION_DATE  = 
ORIGINATOR     = 

OBJECT_NAME    = STARLINK-35949
OBJECT_ID      = 2025-271P
CENTER_NAME    = EARTH
REF_FRAME      = TEME
TIME_SYSTEM    = UTC
MEAN_ELEMENT_THEORY = SGP/SGP4

EPOCH          = 2025-12-25T08:00:01.000224
MEAN_MOTION    = 15.39601002
ECCENTRICITY   = .00006077
INCLINATION    = 53.1602
RA_OF_ASC_NODE = 127.1768
ARG_OF_PERICENTER = 103.7012
MEAN_ANOMALY   = 344.8693

EPHEMERIS_TYPE = 0
CLASSIFICATION_TYPE = U
NORAD_CAT_ID   = 66630
ELEMENT_SET_NO = 999
REV_AT_EPOCH   = 610
BSTAR          = .17234986E-2
MEAN_MOTION_DOT = .69123E-3
MEAN_MOTION_DDOT = 0

CCSDS_OMM_VERS = 2.0
CREATION_DATE  = 
ORIGINATOR     = 

OBJECT_NAME    = STARLINK-35965
OBJECT_ID      = 2025-271Q
CENTER_NAME    = EARTH
REF_FRAME      = TEME
TIME_SYSTEM    = UTC
MEAN_ELEMENT_THEORY = SGP/SGP4

EPOCH          = 2025-12-25T08:00:01.000224
MEAN_MOTION    = 15.39603073
ECCENTRICITY   = .00005962
INCLINATION    = 53.1600
RA_OF_ASC_NODE = 127.1738
ARG_OF_PERICENTER = 100.7614
MEAN_ANOMALY   = 349.6709

EPHEMERIS_TYPE = 0
CLASSIFICATION_TYPE = U
NORAD_CAT_ID   = 66631
ELEMENT_SET_NO = 999
REV_AT_EPOCH   = 610
BSTAR          = .22920542E-2
MEAN_MOTION_DOT = .92346E-3
MEAN_MOTION_DDOT = 0

CCSDS_OMM_VERS = 2.0
CREATION_DATE  = 
ORIGINATOR     = 

OBJECT_NAME    = STARLINK-35973
OBJECT_ID      = 2025-271R
CENTER_NAME    = EARTH
REF_FRAME      = TEME
TIME_SYSTEM    = UTC
MEAN_ELEMENT_THEORY = SGP/SGP4

EPOCH          = 2025-12-24T09:21:44.129376
MEAN_MOTION    = 15.39657214
ECCENTRICITY   = .00008843
INCLINATION    = 53.1616
RA_OF_ASC_NODE = 132.1345
ARG_OF_PERICENTER = 44.7602
MEAN_ANOMALY   = 315.3474

EPHEMERIS_TYPE = 0
CLASSIFICATION_TYPE = U
NORAD_CAT_ID   = 66632
ELEMENT_SET_NO = 999
REV_AT_EPOCH   = 596
BSTAR          = .19181176E-2
MEAN_MOTION_DOT = .77198E-3
MEAN_MOTION_DDOT = 0

CCSDS_OMM_VERS = 2.0
CREATION_DATE  = 
ORIGINATOR     = 

OBJECT_NAME    = STARLINK-35948
OBJECT_ID      = 2025-271S
CENTER_NAME    = EARTH
REF_FRAME      = TEME
TIME_SYSTEM    = UTC
MEAN_ELEMENT_THEORY = SGP/SGP4

EPOCH          = 2025-12-24T15:35:10.142016
MEAN_MOTION    = 15.39618587
ECCENTRICITY   = .00012272
INCLINATION    = 53.1608
RA_OF_ASC_NODE = 130.9090
ARG_OF_PERICENTER = 61.4848
MEAN_ANOMALY   = 298.6280

EPHEMERIS_TYPE = 0
CLASSIFICATION_TYPE = U
NORAD_CAT_ID   = 66633
ELEMENT_SET_NO = 999
REV_AT_EPOCH   = 604
BSTAR          = .24094919E-3
MEAN_MOTION_DOT = .925E-4
MEAN_MOTION_DDOT = 0

CCSDS_OMM_VERS = 2.0
CREATION_DATE  = 
ORIGINATOR     = 

OBJECT_NAME    = STARLINK-35967
OBJECT_ID      = 2025-271T
CENTER_NAME    = EARTH
REF_FRAME      = TEME
TIME_SYSTEM    = UTC
MEAN_ELEMENT_THEORY = SGP/SGP4

EPOCH          = 2025-12-24T20:08:54.695616
MEAN_MOTION    = 15.39642253
ECCENTRICITY   = .00009606
INCLINATION    = 53.1609
RA_OF_ASC_NODE = 129.9588
ARG_OF_PERICENTER = 81.7938
MEAN_ANOMALY   = 278.3176

EPHEMERIS_TYPE = 0
CLASSIFICATION_TYPE = U
NORAD_CAT_ID   = 66634
ELEMENT_SET_NO = 999
REV_AT_EPOCH   = 603
BSTAR          = .11889181E-2
MEAN_MOTION_DOT = .47487E-3
MEAN_MOTION_DDOT = 0

CCSDS_OMM_VERS = 2.0
CREATION_DATE  = 
ORIGINATOR     = 

OBJECT_NAME    = STARLINK-35955
OBJECT_ID      = 2025-271U
CENTER_NAME    = EARTH
REF_FRAME      = TEME
TIME_SYSTEM    = UTC
MEAN_ELEMENT_THEORY = SGP/SGP4

EPOCH          = 2025-12-25T02:09:27.429984
MEAN_MOTION    = 15.39644634
ECCENTRICITY   = .00021625
INCLINATION    = 53.1627
RA_OF_ASC_NODE = 128.6795
ARG_OF_PERICENTER = 78.8459
MEAN_ANOMALY   = 281.2789

EPHEMERIS_TYPE = 0
CLASSIFICATION_TYPE = U
NORAD_CAT_ID   = 66635
ELEMENT_SET_NO = 999
REV_AT_EPOCH   = 611
BSTAR          = .11798666E-2
MEAN_MOTION_DOT = .47126E-3
MEAN_MOTION_DDOT = 0

CCSDS_OMM_VERS = 2.0
CREATION_DATE  = 
ORIGINATOR     = 

OBJECT_NAME    = STARLINK-35968
OBJECT_ID      = 2025-271V
CENTER_NAME    = EARTH
REF_FRAME      = TEME
TIME_SYSTEM    = UTC
MEAN_ELEMENT_THEORY = SGP/SGP4

EPOCH          = 2025-12-25T02:16:08.705280
MEAN_MOTION    = 15.39629292
ECCENTRICITY   = .00021333
INCLINATION    = 53.1620
RA_OF_ASC_NODE = 128.7073
ARG_OF_PERICENTER = 79.5695
MEAN_ANOMALY   = 280.5550

EPHEMERIS_TYPE = 0
CLASSIFICATION_TYPE = U
NORAD_CAT_ID   = 66636
ELEMENT_SET_NO = 999
REV_AT_EPOCH   = 611
BSTAR          = .10781566E-2
MEAN_MOTION_DOT = .42983E-3
MEAN_MOTION_DDOT = 0

CCSDS_OMM_VERS = 2.0
CREATION_DATE  = 
ORIGINATOR     = 

OBJECT_NAME    = STARLINK-35953
OBJECT_ID      = 2025-271W
CENTER_NAME    = EARTH
REF_FRAME      = TEME
TIME_SYSTEM    = UTC
MEAN_ELEMENT_THEORY = SGP/SGP4

EPOCH          = 2025-12-24T16:41:53.954304
MEAN_MOTION    = 15.39644073
ECCENTRICITY   = .00008482
INCLINATION    = 53.1618
RA_OF_ASC_NODE = 130.4840
ARG_OF_PERICENTER = 76.7014
MEAN_ANOMALY   = 283.4085

EPHEMERIS_TYPE = 0
CLASSIFICATION_TYPE = U
NORAD_CAT_ID   = 66637
ELEMENT_SET_NO = 999
REV_AT_EPOCH   = 605
BSTAR          = .90986718E-3
MEAN_MOTION_DOT = .36196E-3
MEAN_MOTION_DDOT = 0

